PROMETHEUS 2-3          
1 41855U 16067H   25165.52639745  .00035275  00000+0  65445-3 0  9991
2 41855  98.0703  18.6143 0004674 222.3195 137.7694 15.48873086471177
CORVUS BC2              
1 42846U 17042X   25165.43675975  .00003537  00000+0  26697-3 0  9993
2 42846  97.3713 337.7889 0013435 289.6036  70.3739 15.02956308431760
CORVUS BC1              
1 42847U 17042Y   25166.01955028  .00003360  00000+0  25219-3 0  9992
2 42847  97.3786 338.8820 0011426 260.5165  99.4770 15.03225643431878
MIRATA                  
1 43015U 17073C   25165.66298519  .00069054  00000+0  10817-2 0  9998
2 43015  97.5378  60.7135 0081349  68.2515 292.7369 15.49698738411596
MAKERSAT 0              
1 43016U 17073D   25165.62491622  .00014997  00000+0  59659-3 0  9999
2 43016  97.5179  43.7593 0147972 122.4797 239.0839 15.15743362410508
SIRION PATHFINDER-2     
1 43759U 18099B   25166.08196265  .00005035  00000+0  31372-3 0  9993
2 43759  97.4765 218.8757 0011211 122.4967 237.7348 15.09952128357149
CORVUS BC4              
1 43767U 18099K   25166.05281074  .00003961  00000+0  25821-3 0  9990
2 43767  97.4579 214.6408 0009240 173.7707 186.3638 15.08428953356983
MOVE-II                 
1 43780U 18099Y   25165.47606777  .00301413  00000+0  16048-2 0  9994
2 43780  97.4630 241.4910 0005471 197.4761 162.6319 15.79611997358577
SPACEBEE-7              
1 43816U 18099BL  25165.74446580  .00028006  00000+0  78233-3 0  9997
2 43816  97.4947 236.0695 0007399 101.2554 258.9522 15.36646916357590
SHIELDS 1               
1 43850U 18104B   25165.62991317  .00029095  00000+0  33939-3 0  9995
2 43850  85.0139  32.9939 0008742 117.2039 243.0116 15.61441715362246
SONATE                  
1 44400U 19038Q   25166.03058375  .00357867  55434-4  75305-3 0  9998
2 44400  97.6802 193.8401 0008227 195.2078 164.8953 15.98830552330449
DUCHIFAT-3              
1 44854U 19089C   25165.78847662  .00043376  00000+0  83212-3 0  9990
2 44854  36.9442 322.0704 0004368 348.0173  12.0480 15.47010801303828
M2 PATHFINDER           
1 45727U 20037E   25165.46808164  .00002719  00000+0  21078-3 0  9992
2 45727  97.8108 348.1523 0012373 317.2404  42.7857 15.02214041270241
NETSAT-4                
1 46504U 20068U   25165.51185949  .00011020  00000+0  37571-3 0  9995
2 46504  97.8454 143.6189 0007411 169.8445 190.2945 15.30529284259308
NETSAT-3                
1 46505U 20068V   25165.83641590  .00010604  00000+0  37852-3 0  9999
2 46505  97.8456 142.8905 0006858 179.3118 180.8132 15.29047477259316
NETSAT-1                
1 46506U 20068W   25165.44607525  .00008065  00000+0  33358-3 0  9992
2 46506  97.8484 140.2707 0005851 197.0609 163.0431 15.24241616259102
NETSAT-2                
1 46507U 20068X   25165.43829200  .00013280  00000+0  45759-3 0  9991
2 46507  97.8453 143.0246 0004848 192.2987 167.8134 15.30149034259233
WILDTRACKCUBE-SIMBA     
1 47941U 21022K   25166.20849802  .00022372  00000+0  46337-3 0  9996
2 47941  97.4219  70.8708 0007164 296.6537  63.3978 15.45747970234065
LEDSAT                  
1 49069U 21073D   25166.20367410  .00054123  00000+0  62866-3 0  9999
2 49069  97.3887 247.9781 0008690  65.3215 294.8946 15.61549876212318
GREENCUBE (IO-117)      
1 53109U 22080E   25165.72678208 -.00000003  00000+0  00000+0 0  9991
2 53109  70.1415  66.0303 0008707   8.8505 351.2307  6.42583823 68459
SITRO-AIS 5 (KATYS)     
1 57176U 23091L   25166.21735394  .00006973  00000+0  32752-3 0  9991
2 57176  97.5573 223.1764 0012551 314.4485  45.5722 15.19869755108439
SITRO-AIS 6 (CHIRKIN)   
1 57192U 23091AC  25166.13924068  .00006845  00000+0  32249-3 0  9997
2 57192  97.5570 223.1076 0012522 314.6611  45.3602 15.19774771108428
SITRO-AIS 8 (ANOKHIN)   
1 57193U 23091AD  25166.17330521  .00008034  00000+0  36274-3 0  9991
2 57193  97.5567 223.6581 0011935 313.9270  46.0980 15.21190181108462
SITRO-AIS 7 (FARTUSHNIY)
1 57194U 23091AE  25166.16116101  .00006716  00000+0  31734-3 0  9998
2 57194  97.5570 223.0677 0012386 315.1740  44.8493 15.19681184108420
SITRO-AIS 10 (BURDAEV)  
1 57199U 23091AK  25166.20802334  .00008298  00000+0  33959-3 0  9996
2 57199  97.5580 226.0451 0007569 295.7632  64.2823 15.24559087108615
SITRO-AIS 9 (SHCHUKIN)  
1 57201U 23091AM  25166.16080110  .00008876  00000+0  36507-3 0  9999
2 57201  97.5577 225.9094 0007537 296.3338  63.7124 15.24369338108606
SITRO-AIS 12 (SMIRENNIY)
1 57204U 23091AQ  25166.14215033  .00008316  00000+0  34024-3 0  9995
2 57204  97.5586 226.1752 0007423 288.6910  71.3521 15.24568703108611
SITRO-AIS 11 (SHEFFER)  
1 57208U 23091AU  25166.16001442  .00008921  00000+0  36253-3 0  9996
2 57208  97.5585 226.2833 0007261 288.7278  71.3171 15.24775499108627
VERONIKA                
1 58261U 23174F   25166.18982619  .00123375  00000+0  92976-3 0  9999
2 58261  97.4107 252.7067 0000669 343.3550  16.7691 15.72130454 89565
ROBUSTA-1E (ENSO)       
1 58470U 23185J   25166.16748809  .00041545  00000+0  58560-3 0  9991
2 58470  97.3726 241.4668 0006907  73.8858 286.3157 15.56483007 85905
SITRO-AIS 25            
1 59066U 24039R   25166.16946081  .00005398  00000+0  45678-3 0  9996
2 59066  95.3755 343.8129 0156181 166.8407 193.6965 14.89178087 70027
SITRO-AIS 26            
1 59067U 24039S   25166.19590937  .00004586  00000+0  38986-3 0  9997
2 59067  95.3759 343.7900 0156330 166.9907 193.5423 14.89033149 70027
SITRO-AIS 27            
1 59068U 24039T   25166.18970583  .00005241  00000+0  44215-3 0  9997
2 59068  95.3760 343.9116 0155634 166.3355 194.2157 14.89357308 70037
SITRO-AIS 28            
1 59071U 24039U   25166.17661108  .00005774  00000+0  48645-3 0  9992
2 59071  95.3759 343.9295 0155512 166.2896 194.2627 14.89397534 70038
GRBBETA                 
1 60237U 24128C   25165.85984966  .00004586  00000+0  34752-3 0  9995
2 60237  61.9925  61.1492 0052382  58.7677 301.8532 15.02682204 50990
OOV-CUBE (TUBSAT-30)    
1 60240U 24128F   25165.99504335  .00002730  00000+0  22711-3 0  9993
2 60240  61.9965  63.5578 0052402  55.6454 304.9576 15.00287813 50976
ROBUSTA-3A (MEDITERRAN*)
1 60243U 24128J   25165.95842641  .00007553  00000+0  53267-3 0  9995
2 60243  61.9892  59.8659 0051101  52.5599 308.0126 15.04726575 51038
LASARSAT                
1 62391U 24247Q   25165.61773480  .00014070  00000+0  54620-3 0  9996
2 62391  44.9838 132.5046 0006981  76.3843 283.7817 15.26048284 26830
CROCUBE                 
1 62394U 24247T   25165.61121264  .00014829  00000+0  57164-3 0  9994
2 62394  44.9789 132.4380 0007448  76.9881 283.1833 15.26238706 26837
